[{"OBJECT_NAME":"STARLINK-34650","OBJECT_ID":"2025-245AA","EPOCH":"2026-03-09T21:50:18.530016","MEAN_MOTION":15.30222178,"ECCENTRICITY":0.00018197,"INCLINATION":53.1617,"RA_OF_ASC_NODE":282.6206,"ARG_OF_PERICENTER":169.1554,"MEAN_ANOMALY":190.9487,"EPHEMERIS_TYPE":0,"CLASSIFICATION_TYPE":"U","NORAD_CAT_ID":66258,"ELEMENT_SET_NO":999,"REV_AT_EPOCH":2129,"BSTAR":0.0011960245,"MEAN_MOTION_DOT":0.00035257,"MEAN_MOTION_DDOT":0},{"OBJECT_NAME":"USA 55","OBJECT_ID":"1990-028B","EPOCH":"2026-03-09T23:32:27.967200","MEAN_MOTION":15.43003152,"ECCENTRICITY":0.00579189,"INCLINATION":94.0887,"RA_OF_ASC_NODE":87.6293,"ARG_OF_PERICENTER":152.9949,"MEAN_ANOMALY":207.4341,"EPHEMERIS_TYPE":0,"CLASSIFICATION_TYPE":"U","NORAD_CAT_ID":20547,"ELEMENT_SET_NO":999,"REV_AT_EPOCH":98658,"BSTAR":0.00013659834,"MEAN_MOTION_DOT":6.373e-5,"MEAN_MOTION_DDOT":0}]
